{"type": "FeatureCollection", "features": [ {"type": "Feature", "properties": {"norad_id": 43437, "name": "SENTINEL-3B", "group": "resource", "lat": -6.716832757259833, "lon": 58.03822955325559, "alt_km": 806.6770726453442, "timestamp": "2025-12-17T21:39:45.366293+00:00", "meta": {"OBJECT_NAME": "SENTINEL-3B", "OBJECT_ID": "2018-039A", "EPOCH": "2025-12-17T14:57:42.814944", "MEAN_MOTION": 14.26735878, "ECCENTRICITY": 0.00016257, "INCLINATION": 98.6263, "RA_OF_ASC_NODE": 56.7387, "ARG_OF_PERICENTER": 96.7967, "MEAN_ANOMALY": 263.3398, "EPHEMERIS_TYPE": 0, "CLASSIFICATION_TYPE": "U", "NORAD_CAT_ID": 43437, "ELEMENT_SET_NO": 999, "REV_AT_EPOCH": 39823, "BSTAR": 6.8126209e-05, "MEAN_MOTION_DOT": 1.21e-06, "MEAN_MOTION_DDOT": 0}, "tle": {"line1": "1 43437U 18039A   25351.62341221  .00000121  00000+0  68126-4 0  9999", "line2": "2 43437  98.6263  56.7387 0001625  96.7967 263.3398 14.26735878398231"}}, "geometry": {"type": "Point", "coordinates": [58.03822955325559, -6.716832757259833]}}, {"type": "Feature", "properties": {"norad_id": 43461, "name": "GAOFEN-5 01", "group": "resource", "lat": -66.04698575017503, "lon": 115.45165225734085, "alt_km": 698.8751327484597, "timestamp": "2025-12-17T21:39:45.366303+00:00", "meta": {"OBJECT_NAME": "GAOFEN-5 01", "OBJECT_ID": "2018-043A", "EPOCH": "2025-12-17T12:18:40.144032", "MEAN_MOTION": 14.60415021, "ECCENTRICITY": 6.641e-05, "INCLINATION": 98.433, "RA_OF_ASC_NODE": 314.5636, "ARG_OF_PERICENTER": 316.2032, "MEAN_ANOMALY": 43.9115, "EPHEMERIS_TYPE": 0, "CLASSIFICATION_TYPE": "U", "NORAD_CAT_ID": 43461, "ELEMENT_SET_NO": 999, "REV_AT_EPOCH": 40517, "BSTAR": 8.9013114e-05, "MEAN_MOTION_DOT": 3.82e-06, "MEAN_MOTION_DDOT": 0}, "tle": {"line1": "1 43461U 18043A   25351.51296463  .00000382  00000+0  89013-4 0  9993", "line2": "2 43461  98.4330 314.5636 0000664 316.2032  43.9115 14.60415021405172"}}, "geometry": {"type": "Point", "coordinates": [115.45165225734085, -66.04698575017503]}}, {"type": "Feature", "properties": {"norad_id": 43484, "name": "GAOFEN-6", "group": "resource", "lat": -2.753067646645663, "lon": -124.38149361971504, "alt_km": 649.9088074697584, "timestamp": "2025-12-17T21:39:45.366312+00:00", "meta": {"OBJECT_NAME": "GAOFEN-6", "OBJECT_ID": "2018-048A", "EPOCH": "2025-12-17T15:57:35.364096", "MEAN_MOTION": 14.76574096, "ECCENTRICITY": 0.00130035, "INCLINATION": 97.8031, "RA_OF_ASC_NODE": 55.7667, "ARG_OF_PERICENTER": 49.042, "MEAN_ANOMALY": 311.1913, "EPHEMERIS_TYPE": 0, "CLASSIFICATION_TYPE": "U", "NORAD_CAT_ID": 43484, "ELEMENT_SET_NO": 999, "REV_AT_EPOCH": 40660, "BSTAR": 4.6965566e-05, "MEAN_MOTION_DOT": 2.79e-06, "MEAN_MOTION_DDOT": 0}, "tle": {"line1": "1 43484U 18048A   25351.66499264  .00000279  00000+0  46966-4 0  9998", "line2": "2 43484  97.8031  55.7667 0013003  49.0420 311.1913 14.76574096406609"}}, "geometry": {"type": "Point", "coordinates": [-124.38149361971504, -2.753067646645663]}}, {"type": "Feature", "properties": {"norad_id": 43585, "name": "GAOFEN-11 01", "group": "resource", "lat": -76.52004711673702, "lon": -156.8145804217482, "alt_km": 423.52412440942135, "timestamp": "2025-12-17T21:39:45.366321+00:00", "meta": {"OBJECT_NAME": "GAOFEN-11 01", "OBJECT_ID": "2018-063A", "EPOCH": "2025-12-17T15:53:58.526880", "MEAN_MOTION": 15.49358517, "ECCENTRICITY": 0.00041182, "INCLINATION": 97.1558, "RA_OF_ASC_NODE": 54.5561, "ARG_OF_PERICENTER": 289.7872, "MEAN_ANOMALY": 70.2935, "EPHEMERIS_TYPE": 0, "CLASSIFICATION_TYPE": "U", "NORAD_CAT_ID": 43585, "ELEMENT_SET_NO": 999, "REV_AT_EPOCH": 41218, "BSTAR": 0.00023044241, "MEAN_MOTION_DOT": 0.00012542, "MEAN_MOTION_DDOT": 0}, "tle": {"line1": "1 43585U 18063A   25351.66248295  .00012542  00000+0  23044-3 0  9990", "line2": "2 43585  97.1558  54.5561 0004118 289.7872  70.2935 15.49358517412185"}}, "geometry": {"type": "Point", "coordinates": [-156.8145804217482, -76.52004711673702]}}, {"type": "Feature", "properties": {"norad_id": 43613, "name": "ICESAT-2", "group": "resource", "lat": -36.77098274310671, "lon": -116.3692992682772, "alt_km": 489.29865432677525, "timestamp": "2025-12-17T21:39:45.366330+00:00", "meta": {"OBJECT_NAME": "ICESAT-2", "OBJECT_ID": "2018-070A", "EPOCH": "2025-12-17T15:32:14.714592", "MEAN_MOTION": 15.28275669, "ECCENTRICITY": 0.0002724, "INCLINATION": 92.0052, "RA_OF_ASC_NODE": 242.0615, "ARG_OF_PERICENTER": 130.5122, "MEAN_ANOMALY": 229.6365, "EPHEMERIS_TYPE": 0, "CLASSIFICATION_TYPE": "U", "NORAD_CAT_ID": 43613, "ELEMENT_SET_NO": 999, "REV_AT_EPOCH": 40473, "BSTAR": 0.00037466427, "MEAN_MOTION_DOT": 0.00010319, "MEAN_MOTION_DDOT": 0}, "tle": {"line1": "1 43613U 18070A   25351.64739253  .00010319  00000+0  37466-3 0  9990", "line2": "2 43613  92.0052 242.0615 0002724 130.5122 229.6365 15.28275669404738"}}, "geometry": {"type": "Point", "coordinates": [-116.3692992682772, -36.77098274310671]}}, {"type": "Feature", "properties": {"norad_id": 43719, "name": "HYSIS", "group": "resource", "lat": -74.44264316344649, "lon": -155.52768392460203, "alt_km": 641.6170660724447, "timestamp": "2025-12-17T21:39:45.366339+00:00", "meta": {"OBJECT_NAME": "HYSIS", "OBJECT_ID": "2018-096A", "EPOCH": "2025-12-17T15:38:00.115008", "MEAN_MOTION": 14.78657804, "ECCENTRICITY": 0.00011679, "INCLINATION": 98.0098, "RA_OF_ASC_NODE": 54.6053, "ARG_OF_PERICENTER": 51.6351, "MEAN_ANOMALY": 308.4964, "EPHEMERIS_TYPE": 0, "CLASSIFICATION_TYPE": "U", "NORAD_CAT_ID": 43719, "ELEMENT_SET_NO": 999, "REV_AT_EPOCH": 38059, "BSTAR": 8.3999885e-05, "MEAN_MOTION_DOT": 5.63e-06, "MEAN_MOTION_DDOT": 0}, "tle": {"line1": "1 43719U 18096A   25351.65139022  .00000563  00000+0  84000-4 0  9991", "line2": "2 43719  98.0098  54.6053 0001167  51.6351 308.4964 14.78657804380598"}}, "geometry": {"type": "Point", "coordinates": [-155.52768392460203, -74.44264316344649]}}, {"type": "Feature", "properties": {"norad_id": 43783, "name": "KAZSTSAT", "group": "resource", "lat": 22.88685354486312, "lon": -149.9658550177281, "alt_km": 572.1225451190921, "timestamp": "2025-12-17T21:39:45.366348+00:00", "meta": {"OBJECT_NAME": "KAZSTSAT", "OBJECT_ID": "2018-099AB", "EPOCH": "2025-12-17T14:33:30.275424", "MEAN_MOTION": 14.99362058, "ECCENTRICITY": 0.00059101, "INCLINATION": 97.4541, "RA_OF_ASC_NODE": 26.5825, "ARG_OF_PERICENTER": 308.6143, "MEAN_ANOMALY": 51.4551, "EPHEMERIS_TYPE": 0, "CLASSIFICATION_TYPE": "U", "NORAD_CAT_ID": 43783, "ELEMENT_SET_NO": 999, "REV_AT_EPOCH": 38409, "BSTAR": 4.7093111e-05, "MEAN_MOTION_DOT": 5.2e-06, "MEAN_MOTION_DDOT": 0}, "tle": {"line1": "1 43783U 18099AB  25351.60660041  .00000520  00000+0  47093-4 0  9994", "line2": "2 43783  97.4541  26.5825 0005910 308.6143  51.4551 14.99362058384097"}}, "geometry": {"type": "Point", "coordinates": [-149.9658550177281, 22.88685354486312]}}, {"type": "Feature", "properties": {"norad_id": 43831, "name": "SAUDISAT 5A", "group": "resource", "lat": -21.86757195808299, "lon": 54.957911008015834, "alt_km": 492.97973122847634, "timestamp": "2025-12-17T21:39:45.366357+00:00", "meta": {"OBJECT_NAME": "SAUDISAT 5A", "OBJECT_ID": "2018-102A", "EPOCH": "2025-12-17T15:27:46.192896", "MEAN_MOTION": 15.25717325, "ECCENTRICITY": 0.00115504, "INCLINATION": 97.3353, "RA_OF_ASC_NODE": 51.741, "ARG_OF_PERICENTER": 61.1614, "MEAN_ANOMALY": 299.0782, "EPHEMERIS_TYPE": 0, "CLASSIFICATION_TYPE": "U", "NORAD_CAT_ID": 43831, "ELEMENT_SET_NO": 999, "REV_AT_EPOCH": 38797, "BSTAR": 0.00020666847, "MEAN_MOTION_DOT": 5.206e-05, "MEAN_MOTION_DDOT": 0}, "tle": {"line1": "1 43831U 18102A   25351.64428464  .00005206  00000+0  20667-3 0  9991", "line2": "2 43831  97.3353  51.7410 0011550  61.1614 299.0782 15.25717325387979"}}, "geometry": {"type": "Point", "coordinates": [54.957911008015834, -21.86757195808299]}}, {"type": "Feature", "properties": {"norad_id": 43833, "name": "SAUDISAT 5B", "group": "resource", "lat": 36.44945807366124, "lon": 49.275319348329425, "alt_km": 477.48775332122204, "timestamp": "2025-12-17T21:39:45.366366+00:00", "meta": {"OBJECT_NAME": "SAUDISAT 5B", "OBJECT_ID": "2018-102C", "EPOCH": "2025-12-17T15:12:26.745696", "MEAN_MOTION": 15.26067267, "ECCENTRICITY": 0.00122784, "INCLINATION": 97.3448, "RA_OF_ASC_NODE": 54.4779, "ARG_OF_PERICENTER": 63.3367, "MEAN_ANOMALY": 296.9127, "EPHEMERIS_TYPE": 0, "CLASSIFICATION_TYPE": "U", "NORAD_CAT_ID": 43833, "ELEMENT_SET_NO": 999, "REV_AT_EPOCH": 38808, "BSTAR": 0.00018491708, "MEAN_MOTION_DOT": 4.701e-05, "MEAN_MOTION_DDOT": 0}, "tle": {"line1": "1 43833U 18102C   25351.63364289  .00004701  00000+0  18492-3 0  9998", "line2": "2 43833  97.3448  54.4779 0012278  63.3367 296.9127 15.26067267388087"}}, "geometry": {"type": "Point", "coordinates": [49.275319348329425, 36.44945807366124]}}, {"type": "Feature", "properties": {"norad_id": 44622, "name": "GAOFEN-10R", "group": "resource", "lat": -75.54732230686628, "lon": 86.22558553110551, "alt_km": 631.1141357137094, "timestamp": "2025-12-17T21:39:45.366376+00:00", "meta": {"OBJECT_NAME": "GAOFEN-10R", "OBJECT_ID": "2019-066A", "EPOCH": "2025-12-17T15:38:38.838624", "MEAN_MOTION": 14.82808894, "ECCENTRICITY": 0.00075508, "INCLINATION": 98.0283, "RA_OF_ASC_NODE": 299.1772, "ARG_OF_PERICENTER": 27.6942, "MEAN_ANOMALY": 332.4671, "EPHEMERIS_TYPE": 0, "CLASSIFICATION_TYPE": "U", "NORAD_CAT_ID": 44622, "ELEMENT_SET_NO": 999, "REV_AT_EPOCH": 33547, "BSTAR": 0.00017318056, "MEAN_MOTION_DOT": 1.347e-05, "MEAN_MOTION_DDOT": 0}, "tle": {"line1": "1 44622U 19066A   25351.65183841  .00001347  00000+0  17318-3 0  9999", "line2": "2 44622  98.0283 299.1772 0007550  27.6942 332.4671 14.82808894335474"}}, "geometry": {"type": "Point", "coordinates": [86.22558553110551, -75.54732230686628]}}]}